SPOT 6                  
1 38755U 12047A   26196.94219008 -.00000177  00000+0 -28318-4 0  9991
2 38755  98.2112 263.9123 0001116  85.8920 274.2407 14.58537959737245
SPOT 7                  
1 40053U 14034A   26196.94673106  .00000051  00000+0  19667-4 0  9992
2 40053  98.0619 258.6952 0001603  94.1131 266.0253 14.60980682641338
