{"fetched_at":"2026-07-16T06:43:20.834Z","source":"https://celestrak.org/NORAD/elements/gp.php?NAME=SPOT&FORMAT=JSON","constellation":"spot","records":[{"OBJECT_NAME":"SPOT 6","OBJECT_ID":"2012-047A","EPOCH":"2026-07-15T22:36:45.222912","CLASSIFICATION_TYPE":"U","MEAN_MOTION":14.58537959,"ECCENTRICITY":0.00011163,"INCLINATION":98.2112,"RA_OF_ASC_NODE":263.9123,"ARG_OF_PERICENTER":85.892,"MEAN_ANOMALY":274.2407,"EPHEMERIS_TYPE":0,"NORAD_CAT_ID":38755,"ELEMENT_SET_NO":999,"REV_AT_EPOCH":73724,"BSTAR":-0.00002831774,"MEAN_MOTION_DOT":-0.00000177,"MEAN_MOTION_DDOT":0},{"OBJECT_NAME":"SPOT 7","OBJECT_ID":"2014-034A","EPOCH":"2026-07-15T22:43:17.563584","CLASSIFICATION_TYPE":"U","MEAN_MOTION":14.60980682,"ECCENTRICITY":0.00016039,"INCLINATION":98.0619,"RA_OF_ASC_NODE":258.6952,"ARG_OF_PERICENTER":94.1131,"MEAN_ANOMALY":266.0253,"EPHEMERIS_TYPE":0,"NORAD_CAT_ID":40053,"ELEMENT_SET_NO":999,"REV_AT_EPOCH":64133,"BSTAR":0.000019667332,"MEAN_MOTION_DOT":5.1e-7,"MEAN_MOTION_DDOT":0}]}
